<?xml version="1.0" encoding="UTF-8"?>
<osm version="0.6" generator="openstreetmap-cgimap 2.1.0 (1307 spike-08.openstreetmap.org)" copyright="OpenStreetMap and contributors" attribution="http://www.openstreetmap.org/copyright" license="http://opendatacommons.org/licenses/odbl/1-0/">
 <bounds minlat="53.7123740" minlon="28.4192360" maxlat="53.7135470" maxlon="28.4228700"/>
<node id="344928408" visible="true" version="6" changeset="50039468" timestamp="2017-07-04T17:16:47Z" user="danvyr" uid="380564" lat="53.7133109" lon="28.4195916"/>
<node id="344928414" visible="true" version="8" changeset="71319595" timestamp="2019-06-17T07:43:30Z" user="User2 - Lightcyphers" uid="7753467" lat="53.7128120" lon="28.4212193" /> 
 <way id="68101158" visible="true" version="23" changeset="179986158" timestamp="2026-03-17T07:01:30Z" user="LidaCity" uid="505124">
  <nd ref="344928408"/>
  <nd ref="344928414"/>
  <tag k="bicycle" v="yes"/>
  <tag k="foot" v="yes"/>
  <tag k="highway" v="tertiary"/>
  <tag k="horse" v="yes"/>
  <tag k="int_name" v="vulica Karla Marksa"/>
  <tag k="lanes" v="2"/>
  <tag k="name" v="вуліца Карла Маркса"/>
  <tag k="name:be" v="вуліца Карла Маркса"/>
  <tag k="name:pl" v="ulica Karola Marksa"/>
  <tag k="name:ru" v="улица Карла Маркса"/>
  <tag k="oneway" v="no"/>
  <tag k="psv" v="yes"/>
  <tag k="ref" v="Н22097"/>
  <tag k="surface" v="asphalt"/>
 </way>
</osm>
